CORAL                   
1 67684U 98067YA  26078.14657735  .00074693  00000+0  10535-2 0  9996
2 67684  51.6314  24.3079 0011957 208.6793 151.3542 15.55842694  6260
GXIBA-1                 
1 67685U 98067YB  26078.24896034  .00034209  00000+0  54134-3 0  9998
2 67685  51.6333  24.2413 0011641 216.8084 143.2108 15.53040945  6273
UITMSAT-2               
1 67686U 98067YC  26078.88266975  .00039911  00000+0  61317-3 0  9990
2 67686  51.6333  20.9755 0008595 188.4949 171.5897 15.53818269  6376
HMU-SAT2                
1 67687U 98067YD  26078.89592799  .00034813  00000+0  55541-3 0  9996
2 67687  51.6329  21.0639 0008267 191.9280 168.1515 15.52843246  6290
LEOPARD                 
1 67688U 98067YE  26078.05082815  .00040983  00000+0  63855-3 0  9990
2 67688  51.6328  25.1689 0008311 186.0451 174.0441 15.53420490  6168
CREW DRAGON 12          
1 67796U 26031A   26078.83953712  .00010217  00000+0  19745-3 0  9997
2 67796  51.6344  22.1830 0006241 209.8635 150.1998 15.48385427557829
