CCSDS_OMM_VERS = 2.0
CREATION_DATE  = 
ORIGINATOR     = 

OBJECT_NAME    = CORAL
OBJECT_ID      = 1998-067YA
CENTER_NAME    = EARTH
REF_FRAME      = TEME
TIME_SYSTEM    = UTC
MEAN_ELEMENT_THEORY = SGP/SGP4

EPOCH          = 2026-03-19T03:31:04.283040
MEAN_MOTION    = 15.55842694
ECCENTRICITY   = .00119576
INCLINATION    = 51.6314
RA_OF_ASC_NODE = 24.3079
ARG_OF_PERICENTER = 208.6793
MEAN_ANOMALY   = 151.3542

EPHEMERIS_TYPE = 0
CLASSIFICATION_TYPE = U
NORAD_CAT_ID   = 67684
ELEMENT_SET_NO = 999
REV_AT_EPOCH   = 626
BSTAR          = .10534644E-2
MEAN_MOTION_DOT = .74693E-3
MEAN_MOTION_DDOT = 0

CCSDS_OMM_VERS = 2.0
CREATION_DATE  = 
ORIGINATOR     = 

OBJECT_NAME    = GXIBA-1
OBJECT_ID      = 1998-067YB
CENTER_NAME    = EARTH
REF_FRAME      = TEME
TIME_SYSTEM    = UTC
MEAN_ELEMENT_THEORY = SGP/SGP4

EPOCH          = 2026-03-19T05:58:30.173376
MEAN_MOTION    = 15.53040945
ECCENTRICITY   = .00116417
INCLINATION    = 51.6333
RA_OF_ASC_NODE = 24.2413
ARG_OF_PERICENTER = 216.8084
MEAN_ANOMALY   = 143.2108

EPHEMERIS_TYPE = 0
CLASSIFICATION_TYPE = U
NORAD_CAT_ID   = 67685
ELEMENT_SET_NO = 999
REV_AT_EPOCH   = 627
BSTAR          = .54134094E-3
MEAN_MOTION_DOT = .34209E-3
MEAN_MOTION_DDOT = 0

CCSDS_OMM_VERS = 2.0
CREATION_DATE  = 
ORIGINATOR     = 

OBJECT_NAME    = UITMSAT-2
OBJECT_ID      = 1998-067YC
CENTER_NAME    = EARTH
REF_FRAME      = TEME
TIME_SYSTEM    = UTC
MEAN_ELEMENT_THEORY = SGP/SGP4

EPOCH          = 2026-03-19T21:11:02.666400
MEAN_MOTION    = 15.53818269
ECCENTRICITY   = .00085955
INCLINATION    = 51.6333
RA_OF_ASC_NODE = 20.9755
ARG_OF_PERICENTER = 188.4949
MEAN_ANOMALY   = 171.5897

EPHEMERIS_TYPE = 0
CLASSIFICATION_TYPE = U
NORAD_CAT_ID   = 67686
ELEMENT_SET_NO = 999
REV_AT_EPOCH   = 637
BSTAR          = .61316782E-3
MEAN_MOTION_DOT = .39911E-3
MEAN_MOTION_DDOT = 0

CCSDS_OMM_VERS = 2.0
CREATION_DATE  = 
ORIGINATOR     = 

OBJECT_NAME    = HMU-SAT2
OBJECT_ID      = 1998-067YD
CENTER_NAME    = EARTH
REF_FRAME      = TEME
TIME_SYSTEM    = UTC
MEAN_ELEMENT_THEORY = SGP/SGP4

EPOCH          = 2026-03-19T21:30:08.178336
MEAN_MOTION    = 15.52843246
ECCENTRICITY   = .00082672
INCLINATION    = 51.6329
RA_OF_ASC_NODE = 21.0639
ARG_OF_PERICENTER = 191.9280
MEAN_ANOMALY   = 168.1515

EPHEMERIS_TYPE = 0
CLASSIFICATION_TYPE = U
NORAD_CAT_ID   = 67687
ELEMENT_SET_NO = 999
REV_AT_EPOCH   = 629
BSTAR          = .55541077E-3
MEAN_MOTION_DOT = .34813E-3
MEAN_MOTION_DDOT = 0

CCSDS_OMM_VERS = 2.0
CREATION_DATE  = 
ORIGINATOR     = 

OBJECT_NAME    = LEOPARD
OBJECT_ID      = 1998-067YE
CENTER_NAME    = EARTH
REF_FRAME      = TEME
TIME_SYSTEM    = UTC
MEAN_ELEMENT_THEORY = SGP/SGP4

EPOCH          = 2026-03-19T01:13:11.552160
MEAN_MOTION    = 15.53420490
ECCENTRICITY   = .00083113
INCLINATION    = 51.6328
RA_OF_ASC_NODE = 25.1689
ARG_OF_PERICENTER = 186.0451
MEAN_ANOMALY   = 174.0441

EPHEMERIS_TYPE = 0
CLASSIFICATION_TYPE = U
NORAD_CAT_ID   = 67688
ELEMENT_SET_NO = 999
REV_AT_EPOCH   = 616
BSTAR          = .63855023E-3
MEAN_MOTION_DOT = .40983E-3
MEAN_MOTION_DDOT = 0

CCSDS_OMM_VERS = 2.0
CREATION_DATE  = 
ORIGINATOR     = 

OBJECT_NAME    = CREW DRAGON 12
OBJECT_ID      = 2026-031A
CENTER_NAME    = EARTH
REF_FRAME      = TEME
TIME_SYSTEM    = UTC
MEAN_ELEMENT_THEORY = SGP/SGP4

EPOCH          = 2026-03-19T20:08:56.007168
MEAN_MOTION    = 15.48385427
ECCENTRICITY   = .00062419
INCLINATION    = 51.6344
RA_OF_ASC_NODE = 22.1830
ARG_OF_PERICENTER = 209.8635
MEAN_ANOMALY   = 150.1998

EPHEMERIS_TYPE = 0
CLASSIFICATION_TYPE = U
NORAD_CAT_ID   = 67796
ELEMENT_SET_NO = 999
REV_AT_EPOCH   = 55782
BSTAR          = .19744557E-3
MEAN_MOTION_DOT = .10217E-3
MEAN_MOTION_DDOT = 0

